{"type": "FeatureCollection", "features": [ {"type": "Feature", "properties": {"norad_id": 44622, "name": "GAOFEN-10R", "group": "resource", "lat": 13.505868835482996, "lon": 115.39267563424681, "alt_km": 624.5936736362855, "timestamp": "2025-12-11T22:43:46.929273+00:00", "meta": {"OBJECT_NAME": "GAOFEN-10R", "OBJECT_ID": "2019-066A", "EPOCH": "2025-12-11T15:30:17.129376", "MEAN_MOTION": 14.82786384, "ECCENTRICITY": 0.0007927, "INCLINATION": 98.0275, "RA_OF_ASC_NODE": 293.148, "ARG_OF_PERICENTER": 45.0297, "MEAN_ANOMALY": 315.1557, "EPHEMERIS_TYPE": 0, "CLASSIFICATION_TYPE": "U", "NORAD_CAT_ID": 44622, "ELEMENT_SET_NO": 999, "REV_AT_EPOCH": 33458, "BSTAR": 0.00032778261, "MEAN_MOTION_DOT": 2.597e-05, "MEAN_MOTION_DDOT": 0}, "tle": {"line1": "1 44622U 19066A   25345.64603159  .00002597  00000+0  32778-3 0  9995", "line2": "2 44622  98.0275 293.1480 0007927  45.0297 315.1557 14.82786384334581"}}, "geometry": {"type": "Point", "coordinates": [115.39267563424681, 13.505868835482996]}}, {"type": "Feature", "properties": {"norad_id": 44804, "name": "CARTOSAT-3", "group": "resource", "lat": -45.86672642317254, "lon": -142.21937337889887, "alt_km": 521.5798391694443, "timestamp": "2025-12-11T22:43:46.929283+00:00", "meta": {"OBJECT_NAME": "CARTOSAT-3", "OBJECT_ID": "2019-081A", "EPOCH": "2025-12-11T15:24:55.589184", "MEAN_MOTION": 15.19359774, "ECCENTRICITY": 0.00139685, "INCLINATION": 97.4581, "RA_OF_ASC_NODE": 45.2397, "ARG_OF_PERICENTER": 90.5522, "MEAN_ANOMALY": 269.7313, "EPHEMERIS_TYPE": 0, "CLASSIFICATION_TYPE": "U", "NORAD_CAT_ID": 44804, "ELEMENT_SET_NO": 999, "REV_AT_EPOCH": 33499, "BSTAR": 0.00037927983, "MEAN_MOTION_DOT": 7.973e-05, "MEAN_MOTION_DDOT": 0}, "tle": {"line1": "1 44804U 19081A   25345.64231006  .00007973  00000+0  37928-3 0  9997", "line2": "2 44804  97.4581  45.2397 0013968  90.5522 269.7313 15.19359774334996"}}, "geometry": {"type": "Point", "coordinates": [-142.21937337889887, -45.86672642317254]}}, {"type": "Feature", "properties": {"norad_id": 44819, "name": "GAOFEN-12 01", "group": "resource", "lat": 76.76077231780583, "lon": -43.45393235438527, "alt_km": 620.842453446905, "timestamp": "2025-12-11T22:43:46.929293+00:00", "meta": {"OBJECT_NAME": "GAOFEN-12 01", "OBJECT_ID": "2019-082A", "EPOCH": "2025-12-11T14:15:48.391776", "MEAN_MOTION": 14.80658538, "ECCENTRICITY": 0.00012541, "INCLINATION": 97.8126, "RA_OF_ASC_NODE": 351.9054, "ARG_OF_PERICENTER": 241.4365, "MEAN_ANOMALY": 118.6721, "EPHEMERIS_TYPE": 0, "CLASSIFICATION_TYPE": "U", "NORAD_CAT_ID": 44819, "ELEMENT_SET_NO": 999, "REV_AT_EPOCH": 32633, "BSTAR": 0.00017003884, "MEAN_MOTION_DOT": 1.256e-05, "MEAN_MOTION_DDOT": 0}, "tle": {"line1": "1 44819U 19082A   25345.59431009  .00001256  00000+0  17004-3 0  9994", "line2": "2 44819  97.8126 351.9054 0001254 241.4365 118.6721 14.80658538326336"}}, "geometry": {"type": "Point", "coordinates": [-43.45393235438527, 76.76077231780583]}}, {"type": "Feature", "properties": {"norad_id": 44873, "name": "CSG-1", "group": "resource", "lat": -6.008341523442656, "lon": -13.552292337561346, "alt_km": 626.4934625228316, "timestamp": "2025-12-11T22:43:46.929304+00:00", "meta": {"OBJECT_NAME": "CSG-1", "OBJECT_ID": "2019-092A", "EPOCH": "2025-12-11T13:47:32.264736", "MEAN_MOTION": 14.82161816, "ECCENTRICITY": 0.00014408, "INCLINATION": 97.881, "RA_OF_ASC_NODE": 166.9164, "ARG_OF_PERICENTER": 84.9196, "MEAN_ANOMALY": 275.2182, "EPHEMERIS_TYPE": 0, "CLASSIFICATION_TYPE": "U", "NORAD_CAT_ID": 44873, "ELEMENT_SET_NO": 999, "REV_AT_EPOCH": 32368, "BSTAR": 0.00013479027, "MEAN_MOTION_DOT": 1.021e-05, "MEAN_MOTION_DDOT": 0}, "tle": {"line1": "1 44873U 19092A   25345.57467899  .00001021  00000+0  13479-3 0  9991", "line2": "2 44873  97.8810 166.9164 0001440  84.9196 275.2182 14.82161816323687"}}, "geometry": {"type": "Point", "coordinates": [-13.552292337561346, -6.008341523442656]}}, {"type": "Feature", "properties": {"norad_id": 46277, "name": "NEMO-HD", "group": "resource", "lat": 0.8183303935112756, "lon": -134.84156022653676, "alt_km": 448.9622331189921, "timestamp": "2025-12-11T22:43:46.929314+00:00", "meta": {"OBJECT_NAME": "NEMO-HD", "OBJECT_ID": "2020-061F", "EPOCH": "2025-12-11T14:09:32.831712", "MEAN_MOTION": 15.40287571, "ECCENTRICITY": 0.00019559, "INCLINATION": 97.2212, "RA_OF_ASC_NODE": 44.7021, "ARG_OF_PERICENTER": 57.7257, "MEAN_ANOMALY": 302.4179, "EPHEMERIS_TYPE": 0, "CLASSIFICATION_TYPE": "U", "NORAD_CAT_ID": 46277, "ELEMENT_SET_NO": 999, "REV_AT_EPOCH": 29306, "BSTAR": 0.00039709219, "MEAN_MOTION_DOT": 0.00015926, "MEAN_MOTION_DDOT": 0}, "tle": {"line1": "1 46277U 20061F   25345.58996333  .00015926  00000+0  39709-3 0  9993", "line2": "2 46277  97.2212  44.7021 0001955  57.7257 302.4179 15.40287571293068"}}, "geometry": {"type": "Point", "coordinates": [-134.84156022653676, 0.8183303935112756]}}, {"type": "Feature", "properties": {"norad_id": 46984, "name": "SENTINEL-6A", "group": "resource", "lat": 39.58191488422497, "lon": -174.47628786017304, "alt_km": 1337.955973441658, "timestamp": "2025-12-11T22:43:46.929325+00:00", "meta": {"OBJECT_NAME": "SENTINEL-6A", "OBJECT_ID": "2020-086A", "EPOCH": "2025-12-11T11:15:24.033888", "MEAN_MOTION": 12.80930611, "ECCENTRICITY": 0.0007729, "INCLINATION": 66.039, "RA_OF_ASC_NODE": 164.9476, "ARG_OF_PERICENTER": 269.1796, "MEAN_ANOMALY": 90.8333, "EPHEMERIS_TYPE": 0, "CLASSIFICATION_TYPE": "U", "NORAD_CAT_ID": 46984, "ELEMENT_SET_NO": 999, "REV_AT_EPOCH": 23628, "BSTAR": 0.0001221224, "MEAN_MOTION_DOT": -3.3e-07, "MEAN_MOTION_DDOT": 0}, "tle": {"line1": "1 46984U 20086A   25345.46902817 -.00000033  00000+0  12212-3 0  9990", "line2": "2 46984  66.0390 164.9476 0007729 269.1796  90.8333 12.80930611236287"}}, "geometry": {"type": "Point", "coordinates": [-174.47628786017304, 39.58191488422497]}}, {"type": "Feature", "properties": {"norad_id": 48079, "name": "GAOFEN-12 02", "group": "resource", "lat": 81.9934777485065, "lon": -113.70204103085746, "alt_km": 617.3203930692271, "timestamp": "2025-12-11T22:43:46.929335+00:00", "meta": {"OBJECT_NAME": "GAOFEN-12 02", "OBJECT_ID": "2021-026A", "EPOCH": "2025-12-11T14:12:47.803680", "MEAN_MOTION": 14.80672924, "ECCENTRICITY": 0.00035158, "INCLINATION": 97.9851, "RA_OF_ASC_NODE": 339.6041, "ARG_OF_PERICENTER": 103.3496, "MEAN_ANOMALY": 256.8108, "EPHEMERIS_TYPE": 0, "CLASSIFICATION_TYPE": "U", "NORAD_CAT_ID": 48079, "ELEMENT_SET_NO": 999, "REV_AT_EPOCH": 25400, "BSTAR": 0.00011692877, "MEAN_MOTION_DOT": 8.46e-06, "MEAN_MOTION_DDOT": 0}, "tle": {"line1": "1 48079U 21026A   25345.59221995  .00000846  00000+0  11693-3 0  9990", "line2": "2 48079  97.9851 339.6041 0003515 103.3496 256.8108 14.80672924254009"}}, "geometry": {"type": "Point", "coordinates": [-113.70204103085746, 81.9934777485065]}}, {"type": "Feature", "properties": {"norad_id": 48268, "name": "PLEIADES NEO 3", "group": "resource", "lat": 24.937192675810035, "lon": -117.9018099438166, "alt_km": 622.8827257299163, "timestamp": "2025-12-11T22:43:46.929346+00:00", "meta": {"OBJECT_NAME": "PLEIADES NEO 3", "OBJECT_ID": "2021-034A", "EPOCH": "2025-12-11T15:33:02.938752", "MEAN_MOTION": 14.81681249, "ECCENTRICITY": 0.00014091, "INCLINATION": 97.8941, "RA_OF_ASC_NODE": 58.1044, "ARG_OF_PERICENTER": 92.5923, "MEAN_ANOMALY": 267.5451, "EPHEMERIS_TYPE": 0, "CLASSIFICATION_TYPE": "U", "NORAD_CAT_ID": 48268, "ELEMENT_SET_NO": 999, "REV_AT_EPOCH": 24988, "BSTAR": 0.00029386856, "MEAN_MOTION_DOT": 2.262e-05, "MEAN_MOTION_DDOT": 0}, "tle": {"line1": "1 48268U 21034A   25345.64795068  .00002262  00000+0  29387-3 0  9995", "line2": "2 48268  97.8941  58.1044 0001409  92.5923 267.5451 14.81681249249889"}}, "geometry": {"type": "Point", "coordinates": [-117.9018099438166, 24.937192675810035]}}, {"type": "Feature", "properties": {"norad_id": 49070, "name": "PLEIADES NEO 4", "group": "resource", "lat": -25.155134631364987, "lon": 62.13114104033195, "alt_km": 630.086997907556, "timestamp": "2025-12-11T22:43:46.929356+00:00", "meta": {"OBJECT_NAME": "PLEIADES NEO 4", "OBJECT_ID": "2021-073E", "EPOCH": "2025-12-11T14:44:24.948096", "MEAN_MOTION": 14.81673963, "ECCENTRICITY": 0.00013218, "INCLINATION": 97.8942, "RA_OF_ASC_NODE": 58.0671, "ARG_OF_PERICENTER": 91.6704, "MEAN_ANOMALY": 268.4661, "EPHEMERIS_TYPE": 0, "CLASSIFICATION_TYPE": "U", "NORAD_CAT_ID": 49070, "ELEMENT_SET_NO": 999, "REV_AT_EPOCH": 23359, "BSTAR": -2.5940388e-05, "MEAN_MOTION_DOT": -2.56e-06, "MEAN_MOTION_DDOT": 0}, "tle": {"line1": "1 49070U 21073E   25345.61417764 -.00000256  00000+0 -25940-4 0  9996", "line2": "2 49070  97.8942  58.0671 0001321  91.6704 268.4661 14.81673963233595"}}, "geometry": {"type": "Point", "coordinates": [62.13114104033195, -25.155134631364987]}}, {"type": "Feature", "properties": {"norad_id": 49260, "name": "LANDSAT 9", "group": "resource", "lat": 60.28777634567178, "lon": 39.41526600842801, "alt_km": 696.0175581417507, "timestamp": "2025-12-11T22:43:46.929366+00:00", "meta": {"OBJECT_NAME": "LANDSAT 9", "OBJECT_ID": "2021-088A", "EPOCH": "2025-12-11T10:54:45.357696", "MEAN_MOTION": 14.57096832, "ECCENTRICITY": 0.00011609, "INCLINATION": 98.2103, "RA_OF_ASC_NODE": 53.5852, "ARG_OF_PERICENTER": 96.5157, "MEAN_ANOMALY": 263.6174, "EPHEMERIS_TYPE": 0, "CLASSIFICATION_TYPE": "U", "NORAD_CAT_ID": 49260, "ELEMENT_SET_NO": 999, "REV_AT_EPOCH": 22366, "BSTAR": 0.0001805218, "MEAN_MOTION_DOT": 7.68e-06, "MEAN_MOTION_DDOT": 0}, "tle": {"line1": "1 49260U 21088A   25345.45469164  .00000768  00000+0  18052-3 0  9997", "line2": "2 49260  98.2103  53.5852 0001160  96.5157 263.6174 14.57096832223668"}}, "geometry": {"type": "Point", "coordinates": [39.41526600842801, 60.28777634567178]}}]}